{
  "links" : {
    "next" : "https://api.nasa.gov/neo/rest/v1/feed?start_date=2003-06-23&end_date=2003-06-23&detailed=true&api_key=t0TVs3DtDT2H8Oy2Zy8m2eVrNsAVKAexjcZXUckd",
    "prev" : "https://api.nasa.gov/neo/rest/v1/feed?start_date=2003-06-21&end_date=2003-06-21&detailed=true&api_key=t0TVs3DtDT2H8Oy2Zy8m2eVrNsAVKAexjcZXUckd",
    "self" : "https://api.nasa.gov/neo/rest/v1/feed?start_date=2003-06-22&end_date=2003-06-22&detailed=true&api_key=t0TVs3DtDT2H8Oy2Zy8m2eVrNsAVKAexjcZXUckd"
  },
  "element_count" : 4,
  "near_earth_objects" : {
    "2003-06-22" : [ {
      "links" : {
        "self" : "https://api.nasa.gov/neo/rest/v1/neo/2163694?api_key=t0TVs3DtDT2H8Oy2Zy8m2eVrNsAVKAexjcZXUckd"
      },
      "neo_reference_id" : "2163694",
      "name" : "163694 (2003 DP13)",
      "nasa_jpl_url" : "http://ssd.jpl.nasa.gov/sbdb.cgi?sstr=2163694",
      "absolute_magnitude_h" : 17.3,
      "estimated_diameter" : {
        "kilometers" : {
          "estimated_diameter_min" : 0.9216265485,
          "estimated_diameter_max" : 2.0608196123
        },
        "meters" : {
          "estimated_diameter_min" : 921.6265485028,
          "estimated_diameter_max" : 2060.8196123208
        },
        "miles" : {
          "estimated_diameter_min" : 0.5726720101,
          "estimated_diameter_max" : 1.2805335433
        },
        "feet" : {
          "estimated_diameter_min" : 3023.70924539,
          "estimated_diameter_max" : 6761.2194168867
        }
      },
      "is_potentially_hazardous_asteroid" : false,
      "close_approach_data" : [ {
        "close_approach_date" : "2003-06-22",
        "epoch_date_close_approach" : 1056265200000,
        "relative_velocity" : {
          "kilometers_per_second" : "11.0665289515",
          "kilometers_per_hour" : "39839.5042254126",
          "miles_per_hour" : "24754.7186116182"
        },
        "miss_distance" : {
          "astronomical" : "0.4101532083",
          "lunar" : "159.5496063232",
          "kilometers" : "61358048",
          "miles" : "38126124"
        },
        "orbiting_body" : "Earth"
      } ],
      "orbital_data" : {
        "orbit_id" : "92",
        "orbit_determination_date" : "2017-04-06 09:26:11",
        "orbit_uncertainty" : "0",
        "minimum_orbit_intersection" : ".264741",
        "jupiter_tisserand_invariant" : "3.148",
        "epoch_osculation" : "2458000.5",
        "eccentricity" : ".5431347497914862",
        "semi_major_axis" : "2.642852081580932",
        "inclination" : "9.812270695529598",
        "ascending_node_longitude" : "326.7399783995219",
        "orbital_period" : "1569.306277087672",
        "perihelion_distance" : "1.207427277515564",
        "perihelion_argument" : "283.0745754035752",
        "aphelion_distance" : "4.0782768856463",
        "perihelion_time" : "2457503.218678289178",
        "mean_anomaly" : "114.0766964547702",
        "mean_motion" : ".2294007264586299",
        "equinox" : "J2000"
      }
    }, {
      "links" : {
        "self" : "https://api.nasa.gov/neo/rest/v1/neo/2333478?api_key=t0TVs3DtDT2H8Oy2Zy8m2eVrNsAVKAexjcZXUckd"
      },
      "neo_reference_id" : "2333478",
      "name" : "333478 (2004 SD20)",
      "nasa_jpl_url" : "http://ssd.jpl.nasa.gov/sbdb.cgi?sstr=2333478",
      "absolute_magnitude_h" : 18.2,
      "estimated_diameter" : {
        "kilometers" : {
          "estimated_diameter_min" : 0.6089126221,
          "estimated_diameter_max" : 1.3615700154
        },
        "meters" : {
          "estimated_diameter_min" : 608.9126221057,
          "estimated_diameter_max" : 1361.5700153859
        },
        "miles" : {
          "estimated_diameter_min" : 0.3783606449,
          "estimated_diameter_max" : 0.846040122
        },
        "feet" : {
          "estimated_diameter_min" : 1997.7448871092,
          "estimated_diameter_max" : 4467.0933692788
        }
      },
      "is_potentially_hazardous_asteroid" : false,
      "close_approach_data" : [ {
        "close_approach_date" : "2003-06-22",
        "epoch_date_close_approach" : 1056265200000,
        "relative_velocity" : {
          "kilometers_per_second" : "22.5880768893",
          "kilometers_per_hour" : "81317.0768013198",
          "miles_per_hour" : "50527.2691935756"
        },
        "miss_distance" : {
          "astronomical" : "0.31758114",
          "lunar" : "123.5390625",
          "kilometers" : "47509464",
          "miles" : "29521012"
        },
        "orbiting_body" : "Earth"
      } ],
      "orbital_data" : {
        "orbit_id" : "29",
        "orbit_determination_date" : "2017-08-04 06:18:34",
        "orbit_uncertainty" : "0",
        "minimum_orbit_intersection" : ".180334",
        "jupiter_tisserand_invariant" : "6.622",
        "epoch_osculation" : "2458000.5",
        "eccentricity" : ".464847742827675",
        "semi_major_axis" : ".875157550937721",
        "inclination" : "21.33396088197754",
        "ascending_node_longitude" : "46.59312309668593",
        "orbital_period" : "299.038973518731",
        "perihelion_distance" : ".4683425387657254",
        "perihelion_argument" : "94.45012399691861",
        "aphelion_distance" : "1.281972563109717",
        "perihelion_time" : "2458142.307164420010",
        "mean_anomaly" : "189.2845290682283",
        "mean_motion" : "1.203856459791688",
        "equinox" : "J2000"
      }
    }, {
      "links" : {
        "self" : "https://api.nasa.gov/neo/rest/v1/neo/3552671?api_key=t0TVs3DtDT2H8Oy2Zy8m2eVrNsAVKAexjcZXUckd"
      },
      "neo_reference_id" : "3552671",
      "name" : "(2010 XG)",
      "nasa_jpl_url" : "http://ssd.jpl.nasa.gov/sbdb.cgi?sstr=3552671",
      "absolute_magnitude_h" : 20.3,
      "estimated_diameter" : {
        "kilometers" : {
          "estimated_diameter_min" : 0.2315021222,
          "estimated_diameter_max" : 0.5176544822
        },
        "meters" : {
          "estimated_diameter_min" : 231.5021222103,
          "estimated_diameter_max" : 517.6544821978
        },
        "miles" : {
          "estimated_diameter_min" : 0.1438487052,
          "estimated_diameter_max" : 0.3216554833
        },
        "feet" : {
          "estimated_diameter_min" : 759.5214226325,
          "estimated_diameter_max" : 1698.3415313737
        }
      },
      "is_potentially_hazardous_asteroid" : false,
      "close_approach_data" : [ {
        "close_approach_date" : "2003-06-22",
        "epoch_date_close_approach" : 1056265200000,
        "relative_velocity" : {
          "kilometers_per_second" : "19.4656080388",
          "kilometers_per_hour" : "70076.18893968",
          "miles_per_hour" : "43542.6186219917"
        },
        "miss_distance" : {
          "astronomical" : "0.4988095789",
          "lunar" : "194.0369262695",
          "kilometers" : "74620848",
          "miles" : "46367248"
        },
        "orbiting_body" : "Earth"
      } ],
      "orbital_data" : {
        "orbit_id" : "15",
        "orbit_determination_date" : "2017-04-06 08:55:29",
        "orbit_uncertainty" : "7",
        "minimum_orbit_intersection" : ".178793",
        "jupiter_tisserand_invariant" : "3.768",
        "epoch_osculation" : "2458000.5",
        "eccentricity" : ".4502483318505276",
        "semi_major_axis" : "1.75791516243755",
        "inclination" : "38.87883926690604",
        "ascending_node_longitude" : "69.55242856925868",
        "orbital_period" : "851.3248194171581",
        "perihelion_distance" : ".9664167930152937",
        "perihelion_argument" : "292.7658528175379",
        "aphelion_distance" : "2.549413531859806",
        "perihelion_time" : "2458020.269832599331",
        "mean_anomaly" : "351.6399245347599",
        "mean_motion" : ".4228703213967925",
        "equinox" : "J2000"
      }
    }, {
      "links" : {
        "self" : "https://api.nasa.gov/neo/rest/v1/neo/3735654?api_key=t0TVs3DtDT2H8Oy2Zy8m2eVrNsAVKAexjcZXUckd"
      },
      "neo_reference_id" : "3735654",
      "name" : "(2015 XJ1)",
      "nasa_jpl_url" : "http://ssd.jpl.nasa.gov/sbdb.cgi?sstr=3735654",
      "absolute_magnitude_h" : 23.4,
      "estimated_diameter" : {
        "kilometers" : {
          "estimated_diameter_min" : 0.0555334912,
          "estimated_diameter_max" : 0.1241766613
        },
        "meters" : {
          "estimated_diameter_min" : 55.5334911581,
          "estimated_diameter_max" : 124.1766612574
        },
        "miles" : {
          "estimated_diameter_min" : 0.0345069009,
          "estimated_diameter_max" : 0.0771597762
        },
        "feet" : {
          "estimated_diameter_min" : 182.1964991311,
          "estimated_diameter_max" : 407.4037573197
        }
      },
      "is_potentially_hazardous_asteroid" : false,
      "close_approach_data" : [ {
        "close_approach_date" : "2003-06-22",
        "epoch_date_close_approach" : 1056265200000,
        "relative_velocity" : {
          "kilometers_per_second" : "19.0497480091",
          "kilometers_per_hour" : "68579.0928326941",
          "miles_per_hour" : "42612.3813215149"
        },
        "miss_distance" : {
          "astronomical" : "0.3405823227",
          "lunar" : "132.4865264893",
          "kilometers" : "50950388",
          "miles" : "31659104"
        },
        "orbiting_body" : "Earth"
      } ],
      "orbital_data" : {
        "orbit_id" : "14",
        "orbit_determination_date" : "2017-04-06 08:30:18",
        "orbit_uncertainty" : "6",
        "minimum_orbit_intersection" : ".0172702",
        "jupiter_tisserand_invariant" : "4.880",
        "epoch_osculation" : "2458000.5",
        "eccentricity" : ".35471297247804",
        "semi_major_axis" : "1.319074956414406",
        "inclination" : "6.504351363519755",
        "ascending_node_longitude" : "230.7017737366105",
        "orbital_period" : "553.3534721890508",
        "perihelion_distance" : ".8511819577033106",
        "perihelion_argument" : "127.991971243594",
        "aphelion_distance" : "1.7869679551255",
        "perihelion_time" : "2457854.563071507571",
        "mean_anomaly" : "94.94346181553401",
        "mean_motion" : ".6505787314857718",
        "equinox" : "J2000"
      }
    } ]
  }
}